P/2019 GG21 (PANSTARRS),e,6.0859,340.5623,208.5892,7.468432,0.0482903,0.47169444,93.9390,09/05.0/2024,2000,g 12.0,4.0
# From MPEC 2022-M21
C/2019 H1 (NEOWISE),e,104.3731,269.3061,19.2803,235.5022,0.0002727,0.99218001,0.0000,04/27.4826/2019,2000,g 15.5,4.0
# From MPEC 2023-A50
C/2019 J1 (Lemmon),e,24.5267,98.2196,167.6381,67.09100,0.0017935,0.96296388,3.5486,09/05.0/2024,2000,g 12.0,4.0
# From MPEC 2021-R75
C/2019 J2 (Palomar),e,105.2436,25.5205,98.6056,160.7409,0.0004836,0.98931493,0.0000,07/20.8264/2019,2000,g 13.0,4.0
# From MPC117071
C/2019 J3 (ATLAS),h,08/02.3553/2019,131.3042,270.6475,16.5398,1.000224,2.364657,2000,13.5,4.0
# From MPEC 2022-M21
C/2019 JU6 (ATLAS),h,06/02.7186/2019,148.3189,21.7366,94.8762,1.000015,2.036362,2000,14.5,4.0
# From MPEC 2022-O08
C/2019 K1 (ATLAS),e,87.0152,73.3086,265.7562,3942,0.0000040,0.99948813,0.0000,02/11.7115/2020,2000,g 10.0,4.0
# From MPC119997
C/2019 K4 (Ye),e,105.2943,180.2267,139.9857,1555,0.0000161,0.99853690,0.0000,06/15.2676/2019,2000,g 12.5,4.0
# From MPEC 2021-P47
C/2019 K5 (Young),e,15.3051,177.2265,175.1520,169.6348,0.0004461,0.98791141,0.0000,06/22.1886/2019,2000,g 13.0,4.0
# From MPEC 2021-P47
C/2019 K6 (PANSTARRS),e,132.3812,42.9977,187.4867,1085,0.0000276,0.99638920,0.0000,05/19.2344/2020,2000,g 11.5,4.0
# From MPEC 2024-GJ3
C/2019 K7 (Smith),h,06/17.5099/2020,103.4984,308.0137,27.3930,1.000781,4.476807,2000,6.0,4.0
# From MPEC 2021-R75
C/2019 K8 (ATLAS),e,93.0758,291.0052,85.3625,1954,0.0000114,0.99836466,0.0000,07/20.9919/2019,2000,g 11.5,4.0
# From MPEC 2023-A50
C/2019 L1 (PANSTARRS),e,9.9741,254.4273,50.0454,9.827723,0.0319908,0.70451499,59.3213,09/05.0/2024,2000,g 13.5,4.0
# From MPC115886
C/2019 L2 (NEOWISE),e,152.1829,12.5651,18.8642,25.13054,0.0078235,0.93536180,15.5058,09/05.0/2024,2000,g 16.0,4.0
# From MPEC 2024-GJ3
P/2019 LD2 (ATLAS),e,11.5998,179.2706,117.4949,5.188548,0.0833941,0.12823028,139.1267,09/05.0/2024,2000,g  8.5,4.0
# From MPEC 2024-P23
C/2019 L3 (ATLAS),h,01/09.9337/2022,48.3444,290.7367,171.6891,1.002748,3.555967,2000,4.5,4.0
# From MPEC 2020-K19
P/2019 LM4 (Palomar),e,36.4182,72.8430,68.2565,5.703466,0.0723595,0.58564248,137.8578,09/05.0/2024,2000,g  9.5,4.0
# From MPC118095
C/2019 LB7 (Kleyna),e,164.2859,3.9443,336.7103,34.92210,0.0047759,0.92853119,9.5002,09/05.0/2024,2000,g 17.0,4.0
# From MPEC 2024-Q25
P/2019 M2 (ATLAS),e,12.2662,307.6081,332.5224,3.030241,0.1868480,0.64730181,355.6677,09/05.0/2024,2000,g 17.5,4.0
# From MPC118095
C/2019 M3 (ATLAS),e,99.5962,154.9991,87.9279,4720,0.0000030,0.99948622,0.0000,12/31.3039/2018,2000,g 12.2,4.0
# From MPEC 2023-JA2
C/2019 M4 (TESS),h,09/10.9487/2019,65.6795,52.6486,260.3633,1.001658,9.190849,2000,5.0,4.0
# From MPEC 2023-C45
C/2019 N1 (ATLAS),e,82.4717,13.5457,193.3625,1068,0.0000282,0.99840457,0.0000,11/30.7534/2020,2000,g  7.5,4.0
# From MPEC 2023-CD8
A/2019 N2,e,89.3365,276.2023,347.1295,1314,0.0000207,0.99852067,0.0000,08/22.5871/2019,2000,g 12.5,2.0
# From MPEC 2022-A21
C/2019 NJ3 (Lemmon),h,10/22.6602/2020,99.3699,142.4876,246.8883,1.001824,4.363159,2000,9.0,4.0
# From MPEC 2024-R10
C/2019 O2 (PANSTARRS),e,93.3107,48.2586,129.5967,58.51244,0.0022021,0.83453104,1.1398,09/05.0/2024,2000,g  5.0,4.0
# From MPEC 2024-PC5
C/2019 O3 (Palomar),h,03/09.2838/2021,89.8058,300.4601,60.1242,1.003769,8.821301,2000,3.5,4.0
# From MPEC 2021-P47
A/2019 O4,e,115.0482,354.9287,61.8569,33.26521,0.0051371,0.89042755,8.5683,09/05.0/2024,2000,g 15.5,2.0
# From MPEC 2024-EF7
C/2019 Q1 (Lemmon),h,07/21.6562/2020,155.7297,42.4586,56.2530,1.001968,5.004935,2000,8.5,4.0
# From MPC117072
A/2019 Q2,e,159.0016,188.0679,176.4780,58.56197,0.0021993,0.97842840,0.0000,07/22.8842/2019,2000,g 18.0,2.0
# From MPC117072
P/2019 S2 (PANSTARRS),e,10.4640,93.1828,217.0407,4.745961,0.0953274,0.20486213,193.0585,09/05.0/2024,2000,g 13.5,4.0
# From MPEC 2022-CN4
P/2019 S3 (PANSTARRS),e,8.6935,150.1533,213.0798,3.415018,0.1561761,0.47091077,286.5810,09/05.0/2024,2000,g 18.3,4.0
# From MPEC 2021-S45
C/2019 S4 (Lemmon),e,92.1081,63.1584,71.3731,243.3878,0.0002596,0.98586228,0.0000,04/08.7612/2020,2000,g 11.0,4.0
# From MPEC 2023-N01
A/2019 T1,e,120.8498,6.9407,91.0285,38.83021,0.0040733,0.88983664,5.4133,09/05.0/2024,2000,g 13.0,2.0
# From MPEC 2023-R20
C/2019 T2 (Lemmon),e,111.4168,155.6565,239.4131,4669,0.0000031,0.99943364,0.0000,04/22.6706/2021,2000,g  9.0,4.0
# From MPEC 2023-UR6
C/2019 T3 (ATLAS),e,121.8532,139.5353,112.4714,3558,0.0000046,0.99832680,0.0000,03/04.3958/2021,2000,g  6.8,4.0
# From MPEC 2024-R10
C/2019 T4 (ATLAS),e,53.6274,199.9263,351.1194,882.9178,0.0000376,0.99519846,0.0000,06/08.6691/2022,2000,g  5.0,4.0
# From MPEC 2021-P47
P/2019 T5 (ATLAS),e,33.4989,247.6112,189.5971,8.003484,0.0435297,0.80983068,80.9683,09/05.0/2024,2000,g 15.0,4.0
# From MPEC 2021-P47
P/2019 T6 (PANSTARRS),e,18.7002,71.2440,329.0339,5.440939,0.0776593,0.62286861,136.8296,09/05.0/2024,2000,g 15.5,4.0
# From MPC118096
P/2019 U4 (PANSTARRS),e,11.6970,200.0145,181.0582,3.519483,0.1492745,0.47590209,270.3738,09/05.0/2024,2000,g 19.0,4.0
# From MPEC 2024-LE0
C/2019 U5 (PANSTARRS),h,03/29.6380/2023,113.5132,2.6274,181.4623,1.000681,3.623857,2000,4.5,4.0
# From MPEC 2022-H04
C/2019 U6 (Lemmon),e,60.9668,235.7870,329.4719,312.8205,0.0001781,0.99709224,0.0000,06/18.2540/2020,2000,g 10.0,4.0
# From MPEC 2022-N37
C/2019 V1 (Borisov),e,61.9437,83.1490,51.1757,2005,0.0000110,0.99845757,0.0000,07/17.0218/2020,2000,g 11.0,4.0
# From MPEC 2022-L66
P/2019 V2 (Groeller),e,11.8070,189.1646,335.6313,7.495101,0.0480328,0.33149792,68.1708,09/05.0/2024,2000,g 10.0,4.0
# From MPEC 2023-A50
P/2019 W1 (PANSTARRS),e,23.4723,35.3732,18.8278,4.548676,0.1015960,0.26730378,197.4979,09/05.0/2024,2000,g 12.9,4.0
# From MPEC 2021-P47
P/2019 X1 (Pruyne),e,10.2491,43.6798,36.8971,6.177027,0.0642000,0.30396852,120.0643,09/05.0/2024,2000,g 10.4,4.0
# From MPEC 2020-C98
P/2019 X2 (Pan-STARRS),e,15.8953,250.8403,213.4691,3.635310,0.1421975,0.50028071,246.0531,09/05.0/2024,2000,g 18.0,4.0
# From MPC119999
C/2019 Y1 (ATLAS),e,73.3509,31.5241,57.9068,87.62827,0.0012015,0.99056055,0.0000,03/16.7508/2020,2000,g 13.7,4.0
# From MPEC 2020-K19
P/2019 Y2 (Fuls),e,4.8765,80.2425,93.3671,3.487864,0.1513090,0.37656112,255.7358,09/05.0/2024,2000,g  9.0,4.0
# From MPEC 2020-C98
P/2019 Y3 (Catalina),e,24.5979,139.2941,2.5699,3.015292,0.1882391,0.69115380,326.2721,09/05.0/2024,2000,g 18.5,4.0
# From MPEC 2024-A43
C/2019 Y4 (ATLAS),e,45.0315,120.7486,177.4331,345.8892,0.0001532,0.99925776,0.0000,05/30.2888/2020,2000,g 11.8,6.0
# From MPEC 2020-L06
C/2019 Y4-A (ATLAS),h,05/30.3290/2020,45.4695,121.1139,177.2663,1.001396,0.254893,2000,11.6,6.0
# From MPEC 2023-J29
C/2019 Y4-B (ATLAS),e,45.1609,120.8560,177.3772,24626,0.0000003,0.99998960,0.0000,05/30.2992/2020,2000,g 12.1,6.0
# From MPEC 2020-L06
C/2019 Y4-C (ATLAS),h,05/30.2811/2020,45.2527,120.8410,177.2994,1.002124,0.255968,2000,12.7,6.0
# From MPEC 2020-L06
C/2019 Y4-D (ATLAS),e,45.3025,121.2072,177.4397,67.89217,0.0017619,0.99624001,0.0000,05/30.3951/2020,2000,g 12.5,6.0
# From MPEC 2023-A50
C/2019 Y5 (PANSTARRS),e,82.7625,51.7516,303.6265,706.5253,0.0000525,0.99302466,0.0000,08/17.1754/2019,2000,g 11.0,4.0
# From MPEC 2023-A50
A/2020 A1,e,149.0325,119.1133,302.4149,25.50220,0.0076531,0.93459221,13.3152,09/05.0/2024,2000,g 18.0,2.0
# From MPEC 2022-YN2
C/2020 A2 (Iwamoto),e,120.5406,286.2222,68.0242,1098,0.0000271,0.99911282,0.0000,01/07.9103/2020,2000,g 13.5,4.0
# From MPEC 2023-A50
C/2020 A3 (ATLAS),e,146.6364,120.8028,268.2791,21152,0.0000003,0.99972795,0.0000,06/27.9999/2019,2000,g  8.0,4.0
# From MPEC 2022-P91
P/2020 A4 (PANSTARRS-Lemmon),e,24.9963,312.3200,144.8311,8.198358,0.0419869,0.65442888,73.3542,09/05.0/2024,2000,g 15.0,4.0
# From MPEC 2020-N08
A/2020 B1,e,18.5306,309.8646,154.7940,51.78253,0.0026450,0.96642901,4.5331,09/05.0/2024,2000,g 21.0,2.0
# From MPEC 2020-HN5
C/2020 B2 (Lemmon),e,55.7524,354.2398,143.5965,67.70151,0.0017693,0.95927563,2.9779,09/05.0/2024,2000,g 10.0,4.0
# From MPEC 2022-N37
C/2020 B3 (Rankin),e,20.7076,185.8009,324.8876,969.7054,0.0000326,0.99656621,0.0000,10/20.0894/2019,2000,g 13.0,4.0
# From MPEC 2023-KD6
P/2020 B4 (Sheppard),e,11.6059,185.9675,341.9871,7.969539,0.0438081,0.19241097,44.7620,09/05.0/2024,2000,g 10.5,4.0
# From MPEC 2024-PC5
C/2020 F2 (ATLAS),h,07/13.4217/2022,163.5896,250.3040,48.2716,1.003986,8.814418,2000,4.5,4.0
# From MPEC 2021-O56
C/2020 F3 (NEOWISE),e,129.1538,61.0972,37.3861,387.8975,0.0001290,0.99924049,0.0000,07/04.4029/2020,2000,g  7.5,5.2
# From MPEC 2024-BE0
C/2020 F5 (MASTER),e,52.2163,350.5138,310.6630,167.9650,0.0004528,0.97423953,0.0000,03/16.7164/2021,2000,g  6.5,3.2
# From MPEC 2020-L06
C/2020 F6 (PANSTARRS),e,174.5834,207.8781,344.4170,364.5675,0.0001416,0.99040059,0.0000,04/11.1437/2020,2000,g 14.5,2.8
# From MPEC 2024-A43
C/2020 F7 (Lemmon),e,93.9657,321.8407,227.9570,554.5206,0.0000755,0.99038229,0.0000,11/13.6428/2021,2000,g  7.0,4.0
# From MPEC 2023-J29
C/2020 F8 (SWAN),h,05/26.5224/2020,110.5599,259.8067,68.0784,1.000109,0.430870,2000,10.0,4.0
# From MPEC 2020-L06
P/2020 G1 (Pimentel),e,18.5117,240.1110,207.6232,3.607380,0.1438521,0.86074378,234.6793,09/05.0/2024,2000,g 17.0,4.0
# From MPEC 2022-YB4
C/2020 H2 (Pruyne),e,124.8104,277.6713,26.6116,182.3636,0.0004002,0.99545349,0.0000,04/27.4991/2020,2000,g 14.0,3.2
# From MPEC 2020-HM1
C/2020 H3 (Wierzchos),p,06/05.7162/2020,62.5292,30.4456,2.300288,270.6227,2000,13.5,4.0
# From MPEC 2020-L06
C/2020 H4 (Leonard),e,84.4952,307.5373,117.5339,47.81815,0.0029807,0.98064981,0.0000,08/29.5096/2020,2000,g 15.0,3.2
# From MPEC 2024-P23
C/2020 H5 (Robinson),e,70.2472,210.6244,326.2820,4905,0.0000029,0.99809640,0.0000,12/10.0334/2020,2000,g  5.0,4.0
# From MPEC 2024-JU4
C/2020 H6 (ATLAS),e,79.9799,213.7124,20.2319,2635,0.0000073,0.99821638,0.0000,09/29.9876/2021,2000,g  8.0,3.2
# From MPEC 2020-KB7
C/2020 H7 (Lemmon),e,135.9235,323.5194,82.6780,1405,0.0000187,0.99685380,0.0000,06/02.9510/2020,2000,g 11.0,4.0
# From MPEC 2021-N06
